     2.10           G: GLONASS NAV DATA                     RINEX VERSION / TYPE
teqc  2015Jun23                         20210923 01:26:26UTCPGM / RUN BY / DATE
Linux 2.4.21-27.ELsmp|Opteron|gcc -static|Linux x86_64|=+   COMMENT
  2021     8    30   -9.313225746155D-10                    CORR TO SYSTEM TIME
                                                            END OF HEADER
15 21  8 31  5 45  0.0 1.017702743411D-04-9.094947017729D-13 2.043000000000D+04
    5.257509765625D+03-3.029321670532D+00-9.313225746155D-10 0.000000000000D+00
    1.128603369141D+04-3.682088851929D-01-0.000000000000D+00 0.000000000000D+00
   -2.223510742188D+04-9.024477005005D-01 1.862645149231D-09 0.000000000000D+00
 3 21  8 31  6 15  0.0 4.212930798531D-05 9.094947017729D-13 2.160000000000D+04
   -5.708034667969D+03-1.535771369934D+00 9.313225746155D-10 0.000000000000D+00
    1.104927685547D+04-2.628815650940D+00 0.000000000000D+00 5.000000000000D+00
    2.231825732422D+04 9.052553176880D-01-1.862645149231D-09 0.000000000000D+00
 5 21  8 31  6 15  0.0 7.810350507498D-05 9.094947017729D-13 2.160000000000D+04
    1.473386767578D+04 4.971303939819D-01 9.313225746155D-10 0.000000000000D+00
    2.026563720703D+04 4.767694473267D-01 0.000000000000D+00 1.000000000000D+00
   -4.844044433594D+03 3.499341964722D+00 1.862645149231D-09 0.000000000000D+00
 4 21  8 31  6 15  0.0 1.025153324008D-04 1.818989403546D-12 2.160000000000D+04
    6.317791503906D+03-7.166137695312D-01 1.862645149231D-09 0.000000000000D+00
    2.155469091797D+04-1.501091003418D+00 0.000000000000D+00 6.000000000000D+00
    1.212098339844D+04 3.047771453857D+00-0.000000000000D+00 0.000000000000D+00
14 21  8 31  6 15  0.0 6.825290620327D-05 0.000000000000D+00 2.160000000000D+04
   -1.808732519531D+04-2.188310623169D+00-1.862645149231D-09 0.000000000000D+00
    8.222639648438D+03 1.593875885010D-01-0.000000000000D+00-7.000000000000D+00
   -1.598959277344D+04 2.552410125732D+00-0.000000000000D+00 0.000000000000D+00
15 21  8 31  6 15  0.0 1.017693430185D-04-9.094947017729D-13 2.160000000000D+04
   -3.517788085938D+02-3.152104377747D+00-1.862645149231D-09 0.000000000000D+00
    1.101640966797D+04 7.553768157959D-02-0.000000000000D+00 0.000000000000D+00
   -2.297657714844D+04 8.395576477051D-02 9.313225746155D-10 0.000000000000D+00
17 21  8 31  6 15  0.0 4.544463008642D-04 2.728484105319D-12 2.160000000000D+04
   -1.456970605469D+04 6.471748352051D-01-9.313225746155D-10 0.000000000000D+00
    1.973109326172D+04-7.264108657837D-01-0.000000000000D+00 4.000000000000D+00
   -6.912475585938D+03-3.439692497253D+00-0.000000000000D+00 0.000000000000D+00
18 21  8 31  6 15  0.0 8.879508823156D-05 9.094947017729D-13 2.160000000000D+04
   -7.432470214844D+03-4.791641235352D-01 0.000000000000D+00 0.000000000000D+00
    2.228812451172D+04 1.300207138062D+00 0.000000000000D+00-3.000000000000D+00
    9.995763671875D+03-3.254721641541D+00-9.313225746155D-10 0.000000000000D+00
24 21  8 31  6 15  0.0 5.668494850397D-05 1.818989403546D-12 2.160000000000D+04
   -1.429438769531D+04 1.464554786682D+00-1.862645149231D-09 0.000000000000D+00
    5.778102539062D+03-2.369897842407D+00-0.000000000000D+00 2.000000000000D+00
   -2.030117626953D+04-1.706767082214D+00 0.000000000000D+00 0.000000000000D+00
19 21  8 31  6 15  0.0-1.575052738190D-04-9.094947017729D-13 2.280000000000D+04
    2.726885742188D+03-1.408121109009D+00 1.862645149231D-09 0.000000000000D+00
    1.381661767578D+04 2.557976722717D+00 0.000000000000D+00 3.000000000000D+00
    2.125980078125D+04-1.482587814331D+00-9.313225746155D-10 0.000000000000D+00
 5 21  8 31  6 45  0.0 7.810536772013D-05 9.094947017729D-13 2.340000000000D+04
    1.522654785156D+04 1.422882080078D-02 9.313225746155D-10 0.000000000000D+00
    2.042222607422D+04-2.824335098267D-01-0.000000000000D+00 1.000000000000D+00
    1.560531250000D+03 3.570701599121D+00 9.313225746155D-10 0.000000000000D+00
15 21  8 31  6 45  0.0 1.017684116960D-04-9.094947017729D-13 2.340000000000D+04
   -5.904794433594D+03-2.967679023743D+00-1.862645149231D-09 0.000000000000D+00
    1.155031445312D+04 5.065984725952D-01-0.000000000000D+00 0.000000000000D+00
   -2.193683984375D+04 1.063757896423D+00 9.313225746155D-10 0.000000000000D+00
 4 21  8 31  6 45  0.0 1.025190576911D-04 1.818989403546D-12 2.340000000000D+04
    4.461096191406D+03-1.353624343872D+00 1.862645149231D-09 0.000000000000D+00
    1.844941308594D+04-1.903772354126D+00 0.000000000000D+00 6.000000000000D+00
    1.706853173828D+04 2.413934707642D+00-9.313225746155D-10 0.000000000000D+00
14 21  8 31  6 45  0.0 6.825290620327D-05 0.000000000000D+00 2.340000000000D+04
   -2.138428759766D+04-1.447891235352D+00-1.862645149231D-09 0.000000000000D+00
    8.718274902344D+03 3.560676574707D-01-0.000000000000D+00-7.000000000000D+00
   -1.083627539062D+04 3.136253356934D+00-9.313225746155D-10 0.000000000000D+00
17 21  8 31  6 45  0.0 4.544509574771D-04 2.728484105319D-12 2.340000000000D+04
   -1.321244335938D+04 8.166007995605D-01-1.862645149231D-09 0.000000000000D+00
    1.766919482422D+04-1.560345649719D+00-0.000000000000D+00 4.000000000000D+00
   -1.275565332031D+04-3.010465621948D+00 0.000000000000D+00 0.000000000000D+00
18 21  8 31  6 45  0.0 8.879788219929D-05 9.094947017729D-13 2.340000000000D+04
   -7.810554687500D+03 2.938365936279D-02-0.000000000000D+00 0.000000000000D+00
    2.400497998047D+04 5.754518508911D-01-0.000000000000D+00-3.000000000000D+00
    3.827378417969D+03-3.554662704468D+00-0.000000000000D+00 0.000000000000D+00
19 21  8 31  6 45  0.0-1.575108617544D-04-9.094947017729D-13 2.340000000000D+04
    7.233051757812D+02-8.177404403687D-01 9.313225746155D-10 0.000000000000D+00
    1.824260107422D+04 2.308943748474D+00 0.000000000000D+00 3.000000000000D+00
    1.780318164062D+04-2.333172798157D+00-9.313225746155D-10 0.000000000000D+00
 5 21  8 31  7 15  0.0 7.810723036528D-05 9.094947017729D-13 2.520000000000D+04
    1.467702929688D+04-6.476373672485D-01 1.862645149231D-09 0.000000000000D+00
    1.935053125000D+04-8.732547760010D-01-0.000000000000D+00 1.000000000000D+00
    7.844637207031D+03 3.366371154785D+00 0.000000000000D+00 0.000000000000D+00
 4 21  8 31  7 15  0.0 1.025227829814D-04 1.818989403546D-12 2.520000000000D+04
    1.452382812500D+03-1.977824211121D+00 1.862645149231D-09 0.000000000000D+00
    1.487120849609D+04-2.024520874023D+00-0.000000000000D+00 6.000000000000D+00
    2.069931152344D+04 1.594181060791D+00-9.313225746155D-10 0.000000000000D+00
14 21  8 31  7 15  0.0 6.825383752584D-05 0.000000000000D+00 2.520000000000D+04
   -2.323423437500D+04-5.988206863403D-01-1.862645149231D-09 0.000000000000D+00
    9.364898925781D+03 3.215408325195D-01-0.000000000000D+00-7.000000000000D+00
   -4.845108398438D+03 3.477354049683D+00-9.313225746155D-10 0.000000000000D+00
15 21  8 31  7 15  0.0 1.017674803734D-04-9.094947017729D-13 2.520000000000D+04
   -1.086724658203D+04-2.504380226135D+00-1.862645149231D-09 0.000000000000D+00
    1.277004052734D+04 8.214712142944D-01-0.000000000000D+00 0.000000000000D+00
   -1.919679492188D+04 1.960869789124D+00 0.000000000000D+00 0.000000000000D+00
17 21  8 31  7 15  0.0 4.544565454125D-04 2.728484105319D-12 2.520000000000D+04
   -1.178624169922D+04 7.270889282227D-01-1.862645149231D-09 0.000000000000D+00
    1.416488378906D+04-2.309576988220D+00-0.000000000000D+00 4.000000000000D+00
   -1.760988964844D+04-2.348079681396D+00 0.000000000000D+00 0.000000000000D+00
18 21  8 31  7 15  0.0 8.880067616701D-05 9.094947017729D-13 2.520000000000D+04
   -7.454525390625D+03 3.262128829956D-01-9.313225746155D-10 0.000000000000D+00
    2.427447021484D+04-2.906064987183D-01 0.000000000000D+00-3.000000000000D+00
   -2.636141601562D+03-3.580510139465D+00-0.000000000000D+00 0.000000000000D+00
19 21  8 31  7 15  0.0-1.575136557221D-04-9.094947017729D-13 2.520000000000D+04
   -2.498193359375D+02-2.816476821899D-01 0.000000000000D+00 0.000000000000D+00
    2.195449169922D+04 1.770937919617D+00-0.000000000000D+00 3.000000000000D+00
    1.296890722656D+04-3.003348350525D+00-9.313225746155D-10 0.000000000000D+00
 5 21  8 31  7 45  0.0 7.810816168785D-05 9.094947017729D-13 2.700000000000D+04
    1.284356103516D+04-1.394703865051D+00 1.862645149231D-09 0.000000000000D+00
    1.742271630859D+04-1.225150108337D+00-0.000000000000D+00 1.000000000000D+00
    1.352315332031D+04 2.902190208435D+00-0.000000000000D+00 0.000000000000D+00
14 21  8 31  7 45  0.0 6.825476884842D-05 0.000000000000D+00 2.700000000000D+04
   -2.354338671875D+04 2.447891235352D-01-9.313225746155D-10 0.000000000000D+00
    9.729292480469D+03 4.430770874023D-02 0.000000000000D+00-7.000000000000D+00
    1.520486328125D+03 3.549635887146D+00-1.862645149231D-09 0.000000000000D+00
 4 21  8 31  7 45  0.0 1.025265082717D-04 1.818989403546D-12 2.700000000000D+04
   -2.584690917969D+03-2.478604316711D+00 9.313225746155D-10 0.000000000000D+00
    1.132462304688D+04-1.874269485474D+00-0.000000000000D+00 6.000000000000D+00
    2.273375195312D+04 6.516895294189D-01-1.862645149231D-09 0.000000000000D+00
15 21  8 31  7 45  0.0 1.017665490508D-04-0.000000000000D+00 2.700000000000D+04
   -1.479465722656D+04-1.832264900208D+00-1.862645149231D-09 0.000000000000D+00
    1.438714550781D+04 9.367485046387D-01 0.000000000000D+00 0.000000000000D+00
   -1.496931445312D+04 2.705710411072D+00-0.000000000000D+00 0.000000000000D+00
17 21  8 31  7 45  0.0 4.544621333480D-04 2.728484105319D-12 2.700000000000D+04
   -1.072582226562D+04 4.207086563110D-01-1.862645149231D-09 0.000000000000D+00
    9.471124023438D+03-2.865753173828D+00 0.000000000000D+00 4.000000000000D+00
   -2.109957910156D+04-1.504230499268D+00 0.000000000000D+00 0.000000000000D+00
18 21  8 31  7 45  0.0 8.880347013474D-05 9.094947017729D-13 2.700000000000D+04
   -6.788298339844D+03 3.710889816284D-01-9.313225746155D-10 0.000000000000D+00
    2.294191357422D+04-1.184585571289D+00 0.000000000000D+00-3.000000000000D+00
   -8.896286621094D+03-3.330119132996D+00-0.000000000000D+00 0.000000000000D+00
